[Satellite]
VERSION=1.1
NAME=SL-14 R/B
NICKNAME=SL-14 R/B
TLE1=1 20466U 90010B   20142.99875955  .00000045  00000-0  26889-5 0  9991
TLE2=2 20466  82.5031  91.5338 0021976  66.1712 294.1803 14.81383909635878
STATUS=0
